SKYSAT-C1               
1 41601U 16040C   26176.03214709  .00009889  00000+0  28038-3 0  9998
2 41601  96.9566 207.3269 0002751  42.5631 317.5827 15.36420055559070
LAPAN-A3                
1 41603U 16040E   26176.61079344  .00004069  00000+0  12924-3 0  9990
2 41603  97.1488 172.4796 0009812 356.6149   3.5026 15.33155066556101
GAOFEN-3                
1 41727U 16049A   26176.61747149 -.00000008  00000+0  10868-4 0  9997
2 41727  98.4014 184.2762 0001567  96.6293 263.5075 14.42216125519868
SKYSAT-C4               
1 41771U 16058B   26176.53798627  .00020979  00000+0  39106-3 0  9997
2 41771  96.9175 197.9606 0001981 140.0669 220.0729 15.48834024546761
SKYSAT-C5               
1 41772U 16058C   26176.05950599  .00008147  00000+0  24544-3 0  9996
2 41772  97.0471 216.3485 0001046 233.3226 126.7922 15.34570645544958
SKYSAT-C2               
1 41773U 16058D   26176.56490875  .00014923  00000+0  34879-3 0  9990
2 41773  97.0170 198.3448 0003973  52.5285 307.6324 15.42248996546341
SKYSAT-C3               
1 41774U 16058E   26176.07039601  .00025486  00000+0  41170-3 0  9991
2 41774  96.9009 206.6140 0001236 114.3829 245.7554 15.52850947547337
ALSAT-1B                
1 41785U 16059C   26176.59966289  .00000367  00000+0  65573-4 0  9997
2 41785  97.7753 185.0004 0008744 190.3143 169.7887 14.72280430521811
PATHFINDER 1            
1 41787U 16059E   26176.52226698  .00000557  00000+0  10548-3 0  9997
2 41787  97.8166 175.4224 0028497 176.7214 183.4184 14.67671619520935
SCATSAT 1               
1 41790U 16059H   26176.46413534  .00001137  00000+0  15588-3 0  9995
2 41790  98.1188 240.3157 0053756 220.2645 139.4580 14.79542177102816
GOKTURK 1A              
1 41875U 16073A   26176.65941499  .00000177  00000+0  43921-4 0  9998
2 41875  98.1244  71.2004 0001426  78.0159 282.1203 14.62779247510061
RESOURCESAT-2A          
1 41877U 16074A   26176.58702572  .00000285  00000+0  15018-3 0  9995
2 41877  98.7526 250.0232 0003233  68.3753 291.7768 14.21619761495492
CARTOSAT-2D             
1 41948U 17008A   26176.58911266  .00006482  00000+0  31047-3 0  9999
2 41948  97.4107 235.7387 0004490 198.8773 161.2296 15.19266576518853
SENTINEL-2B             
1 42063U 17013A   26176.59909660  .00000454  00000+0  18969-3 0  9991
2 42063  98.5691 251.2552 0001204  87.4040 272.7281 14.30820423485842
CARTOSAT-2E             
1 42767U 17036C   26176.60676396  .00005196  00000+0  24991-3 0  9996
2 42767  97.4277 236.2708 0002146 280.7062  79.3931 15.19226852499421
FORMOSAT-5              
1 42920U 17049A   26176.53538209  .00000137  00000+0  45686-4 0  9998
2 42920  98.2252 251.6597 0012483  61.1963 299.0484 14.50901555467880
SENTINEL-5P             
1 42969U 17064A   26176.44873943  .00000042  00000+0  41029-4 0  9997
2 42969  98.7926 118.5214 0000998  88.7271 271.4019 14.19520279450737
SKYSAT-C11              
1 42987U 17068A   26176.40640796  .00032425  00000+0  42853-3 0  9990
2 42987  97.4351 325.5976 0000445 119.6121 240.5179 15.58293811484526
SKYSAT-C10              
1 42988U 17068B   26176.37734913  .00010329  00000+0  30882-3 0  9990
2 42988  97.4509 313.3052 0001134 104.5198 255.6171 15.34764066483612
SKYSAT-C9               
1 42989U 17068C   26176.35243979  .00015209  00000+0  36105-3 0  9992
2 42989  97.4429 314.2930 0009578 107.5601 252.6693 15.41748726484015
SKYSAT-C8               
1 42990U 17068D   26175.35971873  .00009069  00000+0  25205-3 0  9990
2 42990  97.4524 312.1047 0001379  95.7824 264.3578 15.37097162483416
SKYSAT-C7               
1 42991U 17068E   26176.19988273  .00011967  00000+0  33178-3 0  9994
2 42991  97.4535 313.9462 0007102  83.4452 276.7600 15.37070823483609
SKYSAT-C6               
1 42992U 17068F   26176.36489286  .00010392  00000+0  31723-3 0  9999
2 42992  97.4570 314.0522 0005133 128.5582 231.6121 15.34092928483576
CARTOSAT-2F             
1 43111U 18004A   26176.63908346  .00008297  00000+0  39641-3 0  9995
2 43111  97.4789 236.1920 0001513 173.7800 186.3454 15.19280107468615
GAOFEN-1 02             
1 43259U 18031A   26176.63436891  .00000698  00000+0  10780-3 0  9999
2 43259  98.0527 239.1381 0003061  10.5257 349.6016 14.76419121443942
GAOFEN-1 03             
1 43260U 18031B   26176.00247395  .00000106  00000+0  22651-4 0  9996
2 43260  98.0515 238.3654 0003706  63.6994 296.4595 14.76433937443849
GAOFEN-1 04             
1 43262U 18031D   26176.58823377  .00000539  00000+0  84894-4 0  9998
2 43262  98.0528 239.1414 0002061  67.6093 292.5335 14.76443840443927
SENTINEL-3B             
1 43437U 18039A   26176.46503925  .00000097  00000+0  57924-4 0  9994
2 43437  98.6245 243.8785 0000744 105.0723 255.0540 14.26736907425307
GAOFEN-5 01             
1 43461U 18043A   26176.48784503  .00000321  00000+0  76198-4 0  9995
2 43461  98.4573 148.2485 0002932  69.1230 291.0283 14.60610766432905
GAOFEN-6                
1 43484U 18048A   26176.27083799  .00000186  00000+0  34260-4 0  9994
2 43484  98.0451 238.9314 0011542 139.2781 220.9293 14.76428270434588
