OBJECT_NAME,OBJECT_ID,EPOCH,MEAN_MOTION,ECCENTRICITY,INCLINATION,RA_OF_ASC_NODE,ARG_OF_PERICENTER,MEAN_ANOMALY,EPHEMERIS_TYPE,CLASSIFICATION_TYPE,NORAD_CAT_ID,ELEMENT_SET_NO,REV_AT_EPOCH,BSTAR,MEAN_MOTION_DOT,MEAN_MOTION_DDOT
SKYSAT-C1,2016-040C,2026-06-25T00:46:17.508576,15.36420055,.00027519,96.9566,207.3269,42.5631,317.5827,0,U,41601,999,55907,.28038387E-3,.9889E-4,0
LAPAN-A3,2016-040E,2026-06-25T14:39:32.553216,15.33155066,.0009812,97.1488,172.4796,356.6149,3.5026,0,U,41603,999,55610,.12924167E-3,.4069E-4,0
GAOFEN-3,2016-049A,2026-06-25T14:49:09.536736,14.42216125,.00015678,98.4014,184.2762,96.6293,263.5075,0,U,41727,999,51986,.10867972E-4,-.8E-7,0
SKYSAT-C4,2016-058B,2026-06-25T12:54:42.013728,15.48834024,.00019813,96.9175,197.9606,140.0669,220.0729,0,U,41771,999,54676,.39106365E-3,.20979E-3,0
SKYSAT-C5,2016-058C,2026-06-25T01:25:41.317536,15.34570645,.00010469,97.0471,216.3485,233.3226,126.7922,0,U,41772,999,54495,.24544484E-3,.8147E-4,0
SKYSAT-C2,2016-058D,2026-06-25T13:33:28.116000,15.42248996,.00039735,97.0170,198.3448,52.5285,307.6324,0,U,41773,999,54634,.34878579E-3,.14923E-3,0
SKYSAT-C3,2016-058E,2026-06-25T01:41:22.215264,15.52850947,.00012367,96.9009,206.6140,114.3829,245.7554,0,U,41774,999,54733,.41169727E-3,.25486E-3,0
ALSAT-1B,2016-059C,2026-06-25T14:23:30.873696,14.72280430,.00087448,97.7753,185.0004,190.3143,169.7887,0,U,41785,999,52181,.65572842E-4,.367E-5,0
PATHFINDER 1,2016-059E,2026-06-25T12:32:03.867072,14.67671619,.00284977,97.8166,175.4224,176.7214,183.4184,0,U,41787,999,52093,.10548266E-3,.557E-5,0
SCATSAT 1,2016-059H,2026-06-25T11:08:21.293376,14.79542177,.00537564,98.1188,240.3157,220.2645,139.4580,0,U,41790,999,10281,.15588361E-3,.1137E-4,0
GOKTURK 1A,2016-073A,2026-06-25T15:49:33.455136,14.62779247,.00014265,98.1244,71.2004,78.0159,282.1203,0,U,41875,999,51006,.43921007E-4,.177E-5,0
RESOURCESAT-2A,2016-074A,2026-06-25T14:05:19.022208,14.21619761,.00032337,98.7526,250.0232,68.3753,291.7768,0,U,41877,999,49549,.15018243E-3,.285E-5,0
CARTOSAT-2D,2017-008A,2026-06-25T14:08:19.333824,15.19266576,.00044906,97.4107,235.7387,198.8773,161.2296,0,U,41948,999,51885,.3104679E-3,.6482E-4,0
SENTINEL-2B,2017-013A,2026-06-25T14:22:41.946240,14.30820423,.00012044,98.5691,251.2552,87.4040,272.7281,0,U,42063,999,48584,.18968711E-3,.454E-5,0
CARTOSAT-2E,2017-036C,2026-06-25T14:33:44.406144,15.19226852,.00021464,97.4277,236.2708,280.7062,79.3931,0,U,42767,999,49942,.24990523E-3,.5196E-4,0
FORMOSAT-5,2017-049A,2026-06-25T12:50:57.012576,14.50901555,.00124833,98.2252,251.6597,61.1963,299.0484,0,U,42920,999,46788,.45685919E-4,.137E-5,0
SENTINEL-5P,2017-064A,2026-06-25T10:46:11.086752,14.19520279,.00009986,98.7926,118.5214,88.7271,271.4019,0,U,42969,999,45073,.41028894E-4,.42E-6,0
SKYSAT-C11,2017-068A,2026-06-25T09:45:13.647744,15.58293811,.00004454,97.4351,325.5976,119.6121,240.5179,0,U,42987,999,48452,.42852902E-3,.32425E-3,0
SKYSAT-C10,2017-068B,2026-06-25T09:03:22.964832,15.34764066,.00011349,97.4509,313.3052,104.5198,255.6171,0,U,42988,999,48361,.3088198E-3,.10329E-3,0
SKYSAT-C9,2017-068C,2026-06-25T08:27:30.797856,15.41748726,.00095781,97.4429,314.2930,107.5601,252.6693,0,U,42989,999,48401,.36104576E-3,.15209E-3,0
SKYSAT-C8,2017-068D,2026-06-24T08:37:59.698272,15.37097162,.00013797,97.4524,312.1047,95.7824,264.3578,0,U,42990,999,48341,.25204822E-3,.9069E-4,0
SKYSAT-C7,2017-068E,2026-06-25T04:47:49.867872,15.37070823,.00071026,97.4535,313.9462,83.4452,276.7600,0,U,42991,999,48360,.33177874E-3,.11967E-3,0
SKYSAT-C6,2017-068F,2026-06-25T08:45:26.743104,15.34092928,.00051339,97.4570,314.0522,128.5582,231.6121,0,U,42992,999,48357,.31722557E-3,.10392E-3,0
CARTOSAT-2F,2018-004A,2026-06-25T15:20:16.810944,15.19280107,.00015137,97.4789,236.1920,173.7800,186.3454,0,U,43111,999,46861,.39640927E-3,.8297E-4,0
GAOFEN-1 02,2018-031A,2026-06-25T15:13:29.473824,14.76419121,.00030618,98.0527,239.1381,10.5257,349.6016,0,U,43259,999,44394,.10780144E-3,.698E-5,0
GAOFEN-1 03,2018-031B,2026-06-25T00:03:33.749280,14.76433937,.0003706,98.0515,238.3654,63.6994,296.4595,0,U,43260,999,44384,.22651241E-4,.106E-5,0
GAOFEN-1 04,2018-031D,2026-06-25T14:07:03.397728,14.76443840,.0002061,98.0528,239.1414,67.6093,292.5335,0,U,43262,999,44392,.84894302E-4,.539E-5,0
SENTINEL-3B,2018-039A,2026-06-25T11:09:39.391200,14.26736907,.0000744,98.6245,243.8785,105.0723,255.0540,0,U,43437,999,42530,.57923706E-4,.97E-6,0
GAOFEN-5 01,2018-043A,2026-06-25T11:42:29.810592,14.60610766,.00029323,98.4573,148.2485,69.1230,291.0283,0,U,43461,999,43290,.76198064E-4,.321E-5,0
GAOFEN-6,2018-048A,2026-06-25T06:30:00.402336,14.76428270,.00115428,98.0451,238.9314,139.2781,220.9293,0,U,43484,999,43458,.34259828E-4,.186E-5,0
